start=new Date('2022-09-23T00:00:00.000Z').valueOf();
sats=[{"SITE":"AFETR","TLE_LINE1":"1 46081U 20055BG  22265.68301648  .00001006  00000-0  86417-4 0  9991","DECAY_DATE":null,"PERIOD":"95.592","MEAN_ANOMALY":"312.4345","CENTER_NAME":"EARTH","MEAN_MOTION_DOT":"0.00001006","OBJECT_ID":"2020-055BG","RA_OF_ASC_NODE":"10.9559","REF_FRAME":"TEME","APOAPSIS":"548.494","GP_ID":"213234467","EPOCH":"2022-09-22T16:23:32.623872","FILE":"3580447","NORAD_CAT_ID":"46081","ECCENTRICITY":"0.00018490","PERIAPSIS":"545.933","COUNTRY_CODE":"US","ARG_OF_PERICENTER":"47.6801","BSTAR":"0.00008641700000","MEAN_MOTION_DDOT":"0.0000000000000","TLE_LINE2":"2 46081  53.0564  10.9559 0001849  47.6801 312.4345 15.06400063118255","OBJECT_NAME":"STARLINK-1571","OBJECT_TYPE":"PAYLOAD","ELEMENT_SET_NO":"999","REV_AT_EPOCH":"11825","INCLINATION":"53.0564","TIME_SYSTEM":"UTC","MEAN_MOTION":"15.06400063","LAUNCH_DATE":"2020-08-07","RCS_SIZE":"LARGE","CLASSIFICATION_TYPE":"U","EPHEMERIS_TYPE":"0","SEMIMAJOR_AXIS":"6925.348","MEAN_ELEMENT_THEORY":"SGP4"},{"LAUNCH_DATE":"2020-08-07","CLASSIFICATION_TYPE":"U","RCS_SIZE":"LARGE","EPHEMERIS_TYPE":"0","SEMIMAJOR_AXIS":"6925.371","MEAN_ELEMENT_THEORY":"SGP4","OBJECT_TYPE":"PAYLOAD","ELEMENT_SET_NO":"999","REV_AT_EPOCH":"11877","INCLINATION":"53.0556","TLE_LINE2":"2 46082  53.0556  11.4682 0001311  74.6437 285.4697 15.06392737118773","MEAN_MOTION_DDOT":"0.0000000000000","OBJECT_NAME":"STARLINK-1578","TIME_SYSTEM":"UTC","MEAN_MOTION":"15.06392737","FILE":"3580347","NORAD_CAT_ID":"46082","ECCENTRICITY":"0.00013110","EPOCH":"2022-09-22T13:44:19.813920","GP_ID":"213224985","BSTAR":"0.00005485800000","PERIAPSIS":"546.328","COUNTRY_CODE":"US","ARG_OF_PERICENTER":"74.6437","PERIOD":"95.593","DECAY_DATE":null,"MEAN_ANOMALY":"285.4697","CENTER_NAME":"EARTH","SITE":"AFETR","TLE_LINE1":"1 46082U 20055BH  22265.57245155  .00000536  00000-0  54858-4 0  9991","REF_FRAME":"TEME","APOAPSIS":"548.144","OBJECT_ID":"2020-055BH","MEAN_MOTION_DOT":"0.00000536","RA_OF_ASC_NODE":"11.4682"},{"FILE":"3580594","ECCENTRICITY":"0.00012900","NORAD_CAT_ID":"46083","GP_ID":"213256777","EPOCH":"2022-09-22T16:12:55.784160","BSTAR":"0.00017309000000","COUNTRY_CODE":"US","PERIAPSIS":"546.321","ARG_OF_PERICENTER":"80.8709","CENTER_NAME":"EARTH","MEAN_ANOMALY":"279.2426","DECAY_DATE":null,"PERIOD":"95.592","SITE":"AFETR","TLE_LINE1":"1 46083U 20055BJ  22265.67564565  .00002298  00000-0  17309-3 0  9998","APOAPSIS":"548.107","REF_FRAME":"TEME","MEAN_MOTION_DOT":"0.00002298","OBJECT_ID":"2020-055BJ","RA_OF_ASC_NODE":"11.0054","RCS_SIZE":"LARGE","CLASSIFICATION_TYPE":"U","LAUNCH_DATE":"2020-08-07","EPHEMERIS_TYPE":"0","MEAN_ELEMENT_THEORY":"SGP4","SEMIMAJOR_AXIS":"6925.349","ELEMENT_SET_NO":"999","OBJECT_TYPE":"PAYLOAD","REV_AT_EPOCH":"11878","INCLINATION":"53.0566","TLE_LINE2":"2 46083  53.0566  11.0054 0001290  80.8709 279.2426 15.06399861118788","OBJECT_NAME":"STARLINK-1579","MEAN_MOTION_DDOT":"0.0000000000000","MEAN_MOTION":"15.06399861","TIME_SYSTEM":"UTC"},{"TIME_SYSTEM":"UTC","MEAN_MOTION":"15.06400895","INCLINATION":"53.0557","REV_AT_EPOCH":"11581","OBJECT_TYPE":"PAYLOAD","ELEMENT_SET_NO":"999","TLE_LINE2":"2 46117  53.0557 211.4404 0001369  80.8135 279.3008 15.06400895115819","OBJECT_NAME":"STARLINK-1585","MEAN_MOTION_DDOT":"0.0000000000000","SEMIMAJOR_AXIS":"6925.346","MEAN_ELEMENT_THEORY":"SGP4","EPHEMERIS_TYPE":"0","LAUNCH_DATE":"2020-08-18","CLASSIFICATION_TYPE":"U","RCS_SIZE":"LARGE","REF_FRAME":"TEME","APOAPSIS":"548.159","RA_OF_ASC_NODE":"211.4404","OBJECT_ID":"2020-057A","MEAN_MOTION_DOT":"0.00001652","DECAY_DATE":null,"PERIOD":"95.592","MEAN_ANOMALY":"279.3008","CENTER_NAME":"EARTH","TLE_LINE1":"1 46117U 20057A   22265.57612138  .00001652  00000-0  12977-3 0  9996","SITE":"AFETR","BSTAR":"0.00012977000000","ARG_OF_PERICENTER":"80.8135","PERIAPSIS":"546.263","COUNTRY_CODE":"US","NORAD_CAT_ID":"46117","ECCENTRICITY":"0.00013690","FILE":"3580347","GP_ID":"213225239","EPOCH":"2022-09-22T13:49:36.887232"},{"MEAN_ELEMENT_THEORY":"SGP4","SEMIMAJOR_AXIS":"6925.351","EPHEMERIS_TYPE":"0","RCS_SIZE":"LARGE","CLASSIFICATION_TYPE":"U","LAUNCH_DATE":"2020-08-18","MEAN_MOTION":"15.06399260","TIME_SYSTEM":"UTC","OBJECT_NAME":"STARLINK-1588","TLE_LINE2":"2 46118  53.0543 233.1778 0001398  93.5456 266.5693 15.06399260116136","MEAN_MOTION_DDOT":"0.0000000000000","INCLINATION":"53.0543","REV_AT_EPOCH":"11613","ELEMENT_SET_NO":"999","OBJECT_TYPE":"PAYLOAD","ARG_OF_PERICENTER":"93.5456","COUNTRY_CODE":"US","PERIAPSIS":"546.248","BSTAR":"0.00013371000000","GP_ID":"213197964","EPOCH":"2022-09-22T04:29:39.175008","ECCENTRICITY":"0.00013980","NORAD_CAT_ID":"46118","FILE":"3579941","RA_OF_ASC_NODE":"233.1778","MEAN_MOTION_DOT":"0.00001711","OBJECT_ID":"2020-057B","APOAPSIS":"548.184","REF_FRAME":"TEME","TLE_LINE1":"1 46118U 20057B   22265.18725897  .00001711  00000-0  13371-3 0  9996","SITE":"AFETR","CENTER_NAME":"EARTH","MEAN_ANOMALY":"266.5693","PERIOD":"95.592","DECAY_DATE":null},{"OBJECT_NAME":"STARLINK-1593","TLE_LINE2":"2 46119  53.0535 231.1484 0001398  70.7520 289.3620 15.06400975116802","MEAN_MOTION_DDOT":"0.0000000000000","REV_AT_EPOCH":"11680","INCLINATION":"53.0535","ELEMENT_SET_NO":"999","OBJECT_TYPE":"PAYLOAD","MEAN_MOTION":"15.06400975","TIME_SYSTEM":"UTC","RCS_SIZE":"LARGE","CLASSIFICATION_TYPE":"U","LAUNCH_DATE":"2020-08-18","MEAN_ELEMENT_THEORY":"SGP4","SEMIMAJOR_AXIS":"6925.346","EPHEMERIS_TYPE":"0","TLE_LINE1":"1 46119U 20057C   22265.64062127  .00002423  00000-0  18151-3 0  9990","SITE":"AFETR","CENTER_NAME":"EARTH","MEAN_ANOMALY":"289.3620","PERIOD":"95.592","DECAY_DATE":null,"RA_OF_ASC_NODE":"231.1484","OBJECT_ID":"2020-057C","MEAN_MOTION_DOT":"0.00002423","APOAPSIS":"548.179","REF_FRAME":"TEME","EPOCH":"2022-09-22T15:22:29.677728","GP_ID":"213257290","ECCENTRICITY":"0.00013980","NORAD_CAT_ID":"46119","FILE":"3580594","ARG_OF_PERICENTER":"70.7520","COUNTRY_CODE":"US","PERIAPSIS":"546.242","BSTAR":"0.00018151000000"},{"CLASSIFICATION_TYPE":"U","RCS_SIZE":"LARGE","LAUNCH_DATE":"2020-08-18","MEAN_ELEMENT_THEORY":"SGP4","SEMIMAJOR_AXIS":"6925.372","EPHEMERIS_TYPE":"0","MEAN_MOTION_DDOT":"0.0000000000000","TLE_LINE2":"2 46120  53.0557 231.2335 0001535  67.6120 292.5032 15.06392209116823","OBJECT_NAME":"STARLINK-1601","INCLINATION":"53.0557","REV_AT_EPOCH":"11682","ELEMENT_SET_NO":"999","OBJECT_TYPE":"PAYLOAD","MEAN_MOTION":"15.06392209","TIME_SYSTEM":"UTC","GP_ID":"213258031","EPOCH":"2022-09-22T15:01:16.747392","ECCENTRICITY":"0.00015350","NORAD_CAT_ID":"46120","FILE":"3580594","ARG_OF_PERICENTER":"67.6120","COUNTRY_CODE":"US","PERIAPSIS":"546.174","BSTAR":"0.00006254800000","TLE_LINE1":"1 46120U 20057D   22265.62588828  .00000650  00000-0  62548-4 0  9991","SITE":"AFETR","CENTER_NAME":"EARTH","MEAN_ANOMALY":"292.5032","DECAY_DATE":null,"PERIOD":"95.593","RA_OF_ASC_NODE":"231.2335","MEAN_MOTION_DOT":"0.00000650","OBJECT_ID":"2020-057D","APOAPSIS":"548.300","REF_FRAME":"TEME"},{"OBJECT_NAME":"STARLINK-1602","TLE_LINE2":"2 46121  53.0534 213.4583 0001499  69.9317 290.1833 15.06396939116409","MEAN_MOTION_DDOT":"0.0000000000000","ELEMENT_SET_NO":"999","OBJECT_TYPE":"PAYLOAD","INCLINATION":"53.0534","REV_AT_EPOCH":"11640","MEAN_MOTION":"15.06396939","TIME_SYSTEM":"UTC","CLASSIFICATION_TYPE":"U","RCS_SIZE":"LARGE","LAUNCH_DATE":"2020-08-18","EPHEMERIS_TYPE":"0","MEAN_ELEMENT_THEORY":"SGP4","SEMIMAJOR_AXIS":"6925.358","SITE":"AFETR","TLE_LINE1":"1 46121U 20057E   22265.13012730  .00001173  00000-0  97624-4 0  9996","CENTER_NAME":"EARTH","MEAN_ANOMALY":"290.1833","PERIOD":"95.592","DECAY_DATE":null,"MEAN_MOTION_DOT":"0.00001173","OBJECT_ID":"2020-057E","RA_OF_ASC_NODE":"213.4583","APOAPSIS":"548.261","REF_FRAME":"TEME","EPOCH":"2022-09-22T03:07:22.998720","GP_ID":"213194567","FILE":"3579807","ECCENTRICITY":"0.00014990","NORAD_CAT_ID":"46121","COUNTRY_CODE":"US","PERIAPSIS":"546.185","ARG_OF_PERICENTER":"69.9317","BSTAR":"0.00009762400000"},{"EPHEMERIS_TYPE":"0","MEAN_ELEMENT_THEORY":"SGP4","SEMIMAJOR_AXIS":"6925.361","RCS_SIZE":"LARGE","CLASSIFICATION_TYPE":"U","LAUNCH_DATE":"2020-08-18","MEAN_MOTION":"15.06396090","TIME_SYSTEM":"UTC","MEAN_MOTION_DDOT":"0.0000000000000","TLE_LINE2":"2 46122  53.0538 190.1166 0001355 102.6916 257.4224 15.06396090117390","OBJECT_NAME":"STARLINK-1604","ELEMENT_SET_NO":"999","OBJECT_TYPE":"PAYLOAD","INCLINATION":"53.0538","REV_AT_EPOCH":"11739","COUNTRY_CODE":"US","PERIAPSIS":"546.287","ARG_OF_PERICENTER":"102.6916","BSTAR":"0.00013596000000","EPOCH":"2022-09-22T20:51:35.633088","GP_ID":"213257031","FILE":"3580594","ECCENTRICITY":"0.00013550","NORAD_CAT_ID":"46122","OBJECT_ID":"2020-057F","MEAN_MOTION_DOT":"0.00001744","RA_OF_ASC_NODE":"190.1166","APOAPSIS":"548.164","REF_FRAME":"TEME","SITE":"AFETR","TLE_LINE1":"1 46122U 20057F   22265.86916242  .00001744  00000-0  13596-3 0  9997","CENTER_NAME":"EARTH","MEAN_ANOMALY":"257.4224","DECAY_DATE":null,"PERIOD":"95.592"},{"MEAN_MOTION_DOT":"0.00001515","OBJECT_ID":"2020-057G","RA_OF_ASC_NODE":"194.0757","REF_FRAME":"TEME","APOAPSIS":"548.136","SITE":"AFETR","TLE_LINE1":"1 46123U 20057G   22264.99190390  .00001515  00000-0  12059-3 0  9998","PERIOD":"95.592","DECAY_DATE":null,"CENTER_NAME":"EARTH","MEAN_ANOMALY":"289.0659","PERIAPSIS":"546.302","COUNTRY_CODE":"US","ARG_OF_PERICENTER":"71.0474","BSTAR":"0.00012059000000","EPOCH":"2022-09-21T23:48:20.496960","GP_ID":"213226739","FILE":"3580347","NORAD_CAT_ID":"46123","ECCENTRICITY":"0.00013240","TIME_SYSTEM":"UTC","MEAN_MOTION":"15.06398097","TLE_LINE2":"2 46123  53.0549 194.0757 0001324  71.0474 289.0659 15.06398097117286","OBJECT_NAME":"STARLINK-1605","MEAN_MOTION_DDOT":"0.0000000000000","OBJECT_TYPE":"PAYLOAD","ELEMENT_SET_NO":"999","INCLINATION":"53.0549","REV_AT_EPOCH":"11728","EPHEMERIS_TYPE":"0","SEMIMAJOR_AXIS":"6925.354","MEAN_ELEMENT_THEORY":"SGP4","LAUNCH_DATE":"2020-08-18","CLASSIFICATION_TYPE":"U","RCS_SIZE":"LARGE"}];
